OBJECT_NAME,OBJECT_ID,EPOCH,MEAN_MOTION,ECCENTRICITY,INCLINATION,RA_OF_ASC_NODE,ARG_OF_PERICENTER,MEAN_ANOMALY,EPHEMERIS_TYPE,CLASSIFICATION_TYPE,NORAD_CAT_ID,ELEMENT_SET_NO,REV_AT_EPOCH,BSTAR,MEAN_MOTION_DOT,MEAN_MOTION_DDOT
LEMUR-2-STARLIGHT,2025-276DY,2026-07-17T22:31:40.815840,14.99375847,.00147119,97.5232,268.5271,39.1028,321.1256,0,U,66783,999,3480,.31538556E-3,.381E-4,0
LEMUR-2-TARTIFLETTE,2025-276DZ,2026-07-17T22:29:25.225728,14.99358783,.00138756,97.5232,268.5334,47.6043,312.6352,0,U,66784,999,3480,.28586465E-3,.3446E-4,0
LEMUR-2-VUKASIN,2025-276EA,2026-07-17T21:43:34.312800,15.00559921,.00026383,97.5213,268.8658,46.2616,313.8826,0,U,66785,999,3475,.19464169E-3,.2399E-4,0
LEMUR-2-HOTSPUR-TOM,2025-276EB,2026-07-17T14:21:05.021856,14.99254921,.0013711,97.5214,268.1791,40.2029,320.0206,0,U,66786,999,3468,.23113E-3,.2767E-4,0
LEMUR-2-MYRA,2025-276EC,2026-07-17T22:29:23.348256,15.00607233,.00186583,97.5220,268.8162,45.9509,314.3249,0,U,66787,999,3482,.25928547E-3,.3229E-4,0
LEMUR-2 FIKRETDENGIZ,2026-004A,2026-07-17T22:10:21.334656,14.88527399,.00099979,97.8030,197.0152,48.1106,312.0962,0,U,67363,999,2785,.21046984E-3,.1904E-4,0
TWILIGHT-1 OBJECT B,2026-004B,2026-07-17T19:52:03.889056,14.87798342,.0009551,97.8076,196.9200,38.2164,321.9728,0,U,67364,999,2784,.10039728E-3,.863E-5,0
LEMUR-2-MARIO-SOUSA,2026-004C,2026-07-17T10:23:18.002400,14.88737833,.0009683,97.8002,196.5266,50.9541,309.2536,0,U,67365,999,2779,.21412E-3,.1948E-4,0
LEMUR-2-SONNENBLUME,2026-004E,2026-07-17T23:22:26.160960,14.88461180,.00092491,97.8002,197.0309,50.4345,309.7687,0,U,67367,999,2787,.14650995E-3,.1306E-4,0
LEMUR-2-WOBLER,2026-004F,2026-07-17T21:29:33.739296,14.88708930,.00093043,97.8053,197.1077,42.2409,317.9523,0,U,67368,999,2786,.1996178E-3,.1811E-4,0
LEMUR-2-GRAM-E-SUE,2026-004H,2026-07-17T22:55:18.969024,14.88596349,.00084278,97.7987,197.0289,53.4953,306.7039,0,U,67370,999,2787,.13503143E-3,.1203E-4,0
LEMUR-2-KATIE,2026-004AA,2026-07-17T21:48:54.400608,14.90264381,.00032338,97.8046,197.5442,27.6073,332.5316,0,U,67387,999,2788,.21208136E-3,.2003E-4,0
LEMUR-2-HCS-BAZUS,2026-004AB,2026-07-17T21:46:30.825408,14.90272361,.00027684,97.8038,197.5205,27.7831,332.3535,0,U,67388,999,2788,.1712425E-3,.1607E-4,0
